{
  "type": "FeatureCollection",
  "features": [
    {
      "type": "Feature",
      "properties": {
        "norad_id": 34446,
        "name": "COSMOS 2251 DEB",
        "group": "cosmos-2251-debris",
        "lat": 35.57443956359077,
        "lon": -158.4287626889777,
        "alt_km": 692.535936833503,
        "timestamp": "2025-12-25T11:37:44.833810+00:00",
        "meta_object_name": "COSMOS 2251 DEB",
        "meta_object_id": "1993-036SP",
        "meta_epoch": "2025-12-24T21:43:11.581824",
        "meta_mean_motion": 14.49365513,
        "meta_eccentricity": 0.005054,
        "meta_inclination": 74.0415,
        "meta_ra_of_asc_node": 34.4678,
        "meta_arg_of_pericenter": 169.5596,
        "meta_mean_anomaly": 190.6627,
        "meta_ephemeris_type": 0,
        "meta_classification_type": "U",
        "meta_norad_cat_id": 34446,
        "meta_element_set_no": 999,
        "meta_rev_at_epoch": 88870,
        "meta_bstar": 0.00011866,
        "meta_mean_motion_dot": 4.32e-06,
        "meta_mean_motion_ddot": 0,
        "tle_line1": "1 34446U 93036SP  25358.90499516  .00000432  00000+0  11866-3 0  9991",
        "tle_line2": "2 34446  74.0415  34.4678 0050540 169.5596 190.6627 14.49365513888704"
      },
      "geometry": {
        "type": "Point",
        "coordinates": [
          -158.4287626889777,
          35.57443956359077
        ]
      }
    },
    {
      "type": "Feature",
      "properties": {
        "norad_id": 34449,
        "name": "COSMOS 2251 DEB",
        "group": "cosmos-2251-debris",
        "lat": -49.54649770179617,
        "lon": -115.53675609569102,
        "alt_km": 601.2227946378944,
        "timestamp": "2025-12-25T11:37:44.833820+00:00",
        "meta_object_name": "COSMOS 2251 DEB",
        "meta_object_id": "1993-036SS",
        "meta_epoch": "2025-12-24T14:24:05.743008",
        "meta_mean_motion": 14.95490862,
        "meta_eccentricity": 0.00226973,
        "meta_inclination": 74.0318,
        "meta_ra_of_asc_node": 46.626,
        "meta_arg_of_pericenter": 81.975,
        "meta_mean_anomaly": 70.2612,
        "meta_ephemeris_type": 0,
        "meta_classification_type": "U",
        "meta_norad_cat_id": 34449,
        "meta_element_set_no": 999,
        "meta_rev_at_epoch": 88870,
        "meta_bstar": 0.0024584939,
        "meta_mean_motion_dot": 0.00027436,
        "meta_mean_motion_ddot": 0,
        "tle_line1": "1 34449U 93036SS  25358.60006647  .00027436  00000+0  24585-2 0  9994",
        "tle_line2": "2 34449  74.0318  46.6260 0022697  81.9750  70.2612 14.95490862888706"
      },
      "geometry": {
        "type": "Point",
        "coordinates": [
          -115.53675609569102,
          -49.54649770179617
        ]
      }
    },
    {
      "type": "Feature",
      "properties": {
        "norad_id": 34451,
        "name": "COSMOS 2251 DEB",
        "group": "cosmos-2251-debris",
        "lat": -52.67918273863539,
        "lon": -95.81337025117607,
        "alt_km": 600.8660416824787,
        "timestamp": "2025-12-25T11:37:44.833830+00:00",
        "meta_object_name": "COSMOS 2251 DEB",
        "meta_object_id": "1993-036SU",
        "meta_epoch": "2025-12-24T13:43:09.918048",
        "meta_mean_motion": 14.96220659,
        "meta_eccentricity": 0.00240246,
        "meta_inclination": 74.0454,
        "meta_ra_of_asc_node": 63.9892,
        "meta_arg_of_pericenter": 76.6321,
        "meta_mean_anomaly": 283.754,
        "meta_ephemeris_type": 0,
        "meta_classification_type": "U",
        "meta_norad_cat_id": 34451,
        "meta_element_set_no": 999,
        "meta_rev_at_epoch": 88812,
        "meta_bstar": 0.0026240583,
        "meta_mean_motion_dot": 0.00029867,
        "meta_mean_motion_ddot": 0,
        "tle_line1": "1 34451U 93036SU  25358.57164257  .00029867  00000+0  26241-2 0  9996",
        "tle_line2": "2 34451  74.0454  63.9892 0024024  76.6321 283.7540 14.96220659888127"
      },
      "geometry": {
        "type": "Point",
        "coordinates": [
          -95.81337025117607,
          -52.67918273863539
        ]
      }
    },
    {
      "type": "Feature",
      "properties": {
        "norad_id": 34452,
        "name": "COSMOS 2251 DEB",
        "group": "cosmos-2251-debris",
        "lat": -23.074011535536975,
        "lon": 149.4285896426628,
        "alt_km": 547.2378562689,
        "timestamp": "2025-12-25T11:37:44.833840+00:00",
        "meta_object_name": "COSMOS 2251 DEB",
        "meta_object_id": "1993-036SV",
        "meta_epoch": "2025-12-24T16:45:03.093408",
        "meta_mean_motion": 15.12007528,
        "meta_eccentricity": 0.00642345,
        "meta_inclination": 74.0321,
        "meta_ra_of_asc_node": 158.0634,
        "meta_arg_of_pericenter": 231.7157,
        "meta_mean_anomaly": 143.8248,
        "meta_ephemeris_type": 0,
        "meta_classification_type": "U",
        "meta_norad_cat_id": 34452,
        "meta_element_set_no": 999,
        "meta_rev_at_epoch": 90843,
        "meta_bstar": 0.00099409087,
        "meta_mean_motion_dot": 0.00017951,
        "meta_mean_motion_ddot": 0,
        "tle_line1": "1 34452U 93036SV  25358.69795247  .00017951  00000+0  99409-3 0  9997",
        "tle_line2": "2 34452  74.0321 158.0634 0064234 231.7157 143.8248 15.12007528908434"
      },
      "geometry": {
        "type": "Point",
        "coordinates": [
          149.4285896426628,
          -23.074011535536975
        ]
      }
    },
    {
      "type": "Feature",
      "properties": {
        "norad_id": 34454,
        "name": "COSMOS 2251 DEB",
        "group": "cosmos-2251-debris",
        "lat": -72.05561501140303,
        "lon": 136.12447207238858,
        "alt_km": 753.631069431005,
        "timestamp": "2025-12-25T11:37:44.833850+00:00",
        "meta_object_name": "COSMOS 2251 DEB",
        "meta_object_id": "1993-036SX",
        "meta_epoch": "2025-12-24T19:23:44.422656",
        "meta_mean_motion": 14.38826373,
        "meta_eccentricity": 0.00359643,
        "meta_inclination": 74.0584,
        "meta_ra_of_asc_node": 255.4119,
        "meta_arg_of_pericenter": 315.5668,
        "meta_mean_anomaly": 44.2602,
        "meta_ephemeris_type": 0,
        "meta_classification_type": "U",
        "meta_norad_cat_id": 34454,
        "meta_element_set_no": 999,
        "meta_rev_at_epoch": 88241,
        "meta_bstar": 0.00020848352,
        "meta_mean_motion_dot": 6.2e-06,
        "meta_mean_motion_ddot": 0,
        "tle_line1": "1 34454U 93036SX  25358.80815304  .00000620  00000+0  20848-3 0  9995",
        "tle_line2": "2 34454  74.0584 255.4119 0035964 315.5668  44.2602 14.38826373882414"
      },
      "geometry": {
        "type": "Point",
        "coordinates": [
          136.12447207238858,
          -72.05561501140303
        ]
      }
    },
    {
      "type": "Feature",
      "properties": {
        "norad_id": 34459,
        "name": "COSMOS 2251 DEB",
        "group": "cosmos-2251-debris",
        "lat": -52.65335116552596,
        "lon": -149.94648254489954,
        "alt_km": 759.5037055528583,
        "timestamp": "2025-12-25T11:37:44.833860+00:00",
        "meta_object_name": "COSMOS 2251 DEB",
        "meta_object_id": "1993-036TC",
        "meta_epoch": "2025-12-24T23:53:11.652000",
        "meta_mean_motion": 14.00517441,
        "meta_eccentricity": 0.0192132,
        "meta_inclination": 74.0779,
        "meta_ra_of_asc_node": 232.8663,
        "meta_arg_of_pericenter": 299.8727,
        "meta_mean_anomaly": 58.3436,
        "meta_ephemeris_type": 0,
        "meta_classification_type": "U",
        "meta_norad_cat_id": 34459,
        "meta_element_set_no": 999,
        "meta_rev_at_epoch": 85883,
        "meta_bstar": 0.00035903,
        "meta_mean_motion_dot": 6e-06,
        "meta_mean_motion_ddot": 0,
        "tle_line1": "1 34459U 93036TC  25358.99527375  .00000600  00000+0  35903-3 0  9994",
        "tle_line2": "2 34459  74.0779 232.8663 0192132 299.8727  58.3436 14.00517441858831"
      },
      "geometry": {
        "type": "Point",
        "coordinates": [
          -149.94648254489954,
          -52.65335116552596
        ]
      }
    },
    {
      "type": "Feature",
      "properties": {
        "norad_id": 34464,
        "name": "COSMOS 2251 DEB",
        "group": "cosmos-2251-debris",
        "lat": 14.244322025900852,
        "lon": -133.02657482058794,
        "alt_km": 476.3302073021532,
        "timestamp": "2025-12-25T11:37:44.833870+00:00",
        "meta_object_name": "COSMOS 2251 DEB",
        "meta_object_id": "1993-036TH",
        "meta_epoch": "2025-12-24T05:04:02.299008",
        "meta_mean_motion": 15.28657162,
        "meta_eccentricity": 0.00141041,
        "meta_inclination": 73.9883,
        "meta_ra_of_asc_node": 53.8659,
        "meta_arg_of_pericenter": 236.6213,
        "meta_mean_anomaly": 123.364,
        "meta_ephemeris_type": 0,
        "meta_classification_type": "U",
        "meta_norad_cat_id": 34464,
        "meta_element_set_no": 999,
        "meta_rev_at_epoch": 90015,
        "meta_bstar": 0.002998465,
        "meta_mean_motion_dot": 0.00084749,
        "meta_mean_motion_ddot": 0,
        "tle_line1": "1 34464U 93036TH  25358.21113772  .00084749  00000+0  29985-2 0  9995",
        "tle_line2": "2 34464  73.9883  53.8659 0014104 236.6213 123.3640 15.28657162900157"
      },
      "geometry": {
        "type": "Point",
        "coordinates": [
          -133.02657482058794,
          14.244322025900852
        ]
      }
    }
  ]
}